[Satellite]
VERSION=1.1
NAME=INTEGRAL
NICKNAME=INTEGRAL
TLE1=1 27540U 02048A   15053.00349352  .00000627  00000-0  00000+0 0  9996
TLE2=2 27540  53.8880 223.9271 8530537 264.8160 359.5974  0.33287070 11235
